CCSDS_OMM_VERS = 2.0
CREATION_DATE  = 
ORIGINATOR     = 

OBJECT_NAME    = SL-14 R/B
OBJECT_ID      = 1991-042B
CENTER_NAME    = EARTH
REF_FRAME      = TEME
TIME_SYSTEM    = UTC
MEAN_ELEMENT_THEORY = SGP/SGP4

EPOCH          = 2025-12-14T08:02:40.878240
MEAN_MOTION    = 14.81740807
ECCENTRICITY   = .00175959
INCLINATION    = 82.4926
RA_OF_ASC_NODE = 300.2267
ARG_OF_PERICENTER = 156.6576
MEAN_ANOMALY   = 203.5441

EPHEMERIS_TYPE = 0
CLASSIFICATION_TYPE = U
NORAD_CAT_ID   = 21423
ELEMENT_SET_NO = 999
REV_AT_EPOCH   = 84043
BSTAR          = .7733224E-4
MEAN_MOTION_DOT = .634E-5
MEAN_MOTION_DDOT = 0

CCSDS_OMM_VERS = 2.0
CREATION_DATE  = 
ORIGINATOR     = 

OBJECT_NAME    = ERS-1
OBJECT_ID      = 1991-050A
CENTER_NAME    = EARTH
REF_FRAME      = TEME
TIME_SYSTEM    = UTC
MEAN_ELEMENT_THEORY = SGP/SGP4

EPOCH          = 2025-12-14T06:23:23.709696
MEAN_MOTION    = 14.39366125
ECCENTRICITY   = .00330332
INCLINATION    = 98.7905
RA_OF_ASC_NODE = 359.3592
ARG_OF_PERICENTER = 95.6813
MEAN_ANOMALY   = 264.8142

EPHEMERIS_TYPE = 0
CLASSIFICATION_TYPE = U
NORAD_CAT_ID   = 21574
ELEMENT_SET_NO = 999
REV_AT_EPOCH   = 80344
BSTAR          = .16496137E-3
MEAN_MOTION_DOT = .47E-5
MEAN_MOTION_DDOT = 0

CCSDS_OMM_VERS = 2.0
CREATION_DATE  = 
ORIGINATOR     = 

OBJECT_NAME    = ARIANE 40 R/B
OBJECT_ID      = 1991-050F
CENTER_NAME    = EARTH
REF_FRAME      = TEME
TIME_SYSTEM    = UTC
MEAN_ELEMENT_THEORY = SGP/SGP4

EPOCH          = 2025-12-14T04:09:48.323808
MEAN_MOTION    = 14.42814779
ECCENTRICITY   = .00026946
INCLINATION    = 98.2165
RA_OF_ASC_NODE = 38.5522
ARG_OF_PERICENTER = 356.2795
MEAN_ANOMALY   = 3.8375

EPHEMERIS_TYPE = 0
CLASSIFICATION_TYPE = U
NORAD_CAT_ID   = 21610
ELEMENT_SET_NO = 999
REV_AT_EPOCH   = 80666
BSTAR          = .15428084E-3
MEAN_MOTION_DOT = .473E-5
MEAN_MOTION_DDOT = 0

CCSDS_OMM_VERS = 2.0
CREATION_DATE  = 
ORIGINATOR     = 

OBJECT_NAME    = INTERCOSMOS 25
OBJECT_ID      = 1991-086A
CENTER_NAME    = EARTH
REF_FRAME      = TEME
TIME_SYSTEM    = UTC
MEAN_ELEMENT_THEORY = SGP/SGP4

EPOCH          = 2025-12-14T06:52:41.372544
MEAN_MOTION    = 12.11733137
ECCENTRICITY   = .14865178
INCLINATION    = 82.6072
RA_OF_ASC_NODE = 1.6410
ARG_OF_PERICENTER = 301.0616
MEAN_ANOMALY   = 45.2774

EPHEMERIS_TYPE = 0
CLASSIFICATION_TYPE = U
NORAD_CAT_ID   = 21819
ELEMENT_SET_NO = 999
REV_AT_EPOCH   = 48634
BSTAR          = .42225857E-3
MEAN_MOTION_DOT = .2122E-4
MEAN_MOTION_DDOT = 0

CCSDS_OMM_VERS = 2.0
CREATION_DATE  = 
ORIGINATOR     = 

OBJECT_NAME    = SL-8 R/B
OBJECT_ID      = 1992-008B
CENTER_NAME    = EARTH
REF_FRAME      = TEME
TIME_SYSTEM    = UTC
MEAN_ELEMENT_THEORY = SGP/SGP4

EPOCH          = 2025-12-14T04:42:33.349248
MEAN_MOTION    = 13.75959191
ECCENTRICITY   = .00351034
INCLINATION    = 82.9266
RA_OF_ASC_NODE = 331.3629
ARG_OF_PERICENTER = 15.7859
MEAN_ANOMALY   = 354.9068

EPHEMERIS_TYPE = 0
CLASSIFICATION_TYPE = U
NORAD_CAT_ID   = 21876
ELEMENT_SET_NO = 999
REV_AT_EPOCH   = 69766
BSTAR          = .14837675E-3
MEAN_MOTION_DOT = .16E-5
MEAN_MOTION_DDOT = 0

CCSDS_OMM_VERS = 2.0
CREATION_DATE  = 
ORIGINATOR     = 

OBJECT_NAME    = SL-8 R/B
OBJECT_ID      = 1992-020B
CENTER_NAME    = EARTH
REF_FRAME      = TEME
TIME_SYSTEM    = UTC
MEAN_ELEMENT_THEORY = SGP/SGP4

EPOCH          = 2025-12-14T03:51:44.321760
MEAN_MOTION    = 13.75527514
ECCENTRICITY   = .0028985
INCLINATION    = 82.9304
RA_OF_ASC_NODE = 217.2623
ARG_OF_PERICENTER = 174.1471
MEAN_ANOMALY   = 299.5025

EPHEMERIS_TYPE = 0
CLASSIFICATION_TYPE = U
NORAD_CAT_ID   = 21938
ELEMENT_SET_NO = 999
REV_AT_EPOCH   = 68937
BSTAR          = .11835658E-3
MEAN_MOTION_DOT = .13E-5
MEAN_MOTION_DDOT = 0

CCSDS_OMM_VERS = 2.0
CREATION_DATE  = 
ORIGINATOR     = 

OBJECT_NAME    = USA 81
OBJECT_ID      = 1992-023A
CENTER_NAME    = EARTH
REF_FRAME      = TEME
TIME_SYSTEM    = UTC
MEAN_ELEMENT_THEORY = SGP/SGP4

EPOCH          = 2025-12-14T06:59:46.270464
MEAN_MOTION    = 14.32327531
ECCENTRICITY   = .00013394
INCLINATION    = 85.0080
RA_OF_ASC_NODE = 180.6813
ARG_OF_PERICENTER = 66.6702
MEAN_ANOMALY   = 293.4632

EPHEMERIS_TYPE = 0
CLASSIFICATION_TYPE = U
NORAD_CAT_ID   = 21949
ELEMENT_SET_NO = 999
REV_AT_EPOCH   = 8256
BSTAR          = .87393272E-4
MEAN_MOTION_DOT = .256E-5
MEAN_MOTION_DDOT = 0

CCSDS_OMM_VERS = 2.0
CREATION_DATE  = 
ORIGINATOR     = 

OBJECT_NAME    = COSMOS 2219
OBJECT_ID      = 1992-076A
CENTER_NAME    = EARTH
REF_FRAME      = TEME
TIME_SYSTEM    = UTC
MEAN_ELEMENT_THEORY = SGP/SGP4

EPOCH          = 2025-12-14T06:44:28.679136
MEAN_MOTION    = 14.14062663
ECCENTRICITY   = .00191099
INCLINATION    = 71.0576
RA_OF_ASC_NODE = 196.6112
ARG_OF_PERICENTER = 324.7903
MEAN_ANOMALY   = 35.1955

EPHEMERIS_TYPE = 0
CLASSIFICATION_TYPE = U
NORAD_CAT_ID   = 22219
ELEMENT_SET_NO = 999
REV_AT_EPOCH   = 70630
BSTAR          = .42757206E-4
MEAN_MOTION_DOT = .34E-6
MEAN_MOTION_DDOT = 0

CCSDS_OMM_VERS = 2.0
CREATION_DATE  = 
ORIGINATOR     = 

OBJECT_NAME    = SL-16 R/B
OBJECT_ID      = 1992-076B
CENTER_NAME    = EARTH
REF_FRAME      = TEME
TIME_SYSTEM    = UTC
MEAN_ELEMENT_THEORY = SGP/SGP4

EPOCH          = 2025-12-14T07:56:53.799072
MEAN_MOTION    = 14.16840933
ECCENTRICITY   = .00146998
INCLINATION    = 71.0005
RA_OF_ASC_NODE = 8.1796
ARG_OF_PERICENTER = 231.9257
MEAN_ANOMALY   = 139.1326

EPHEMERIS_TYPE = 0
CLASSIFICATION_TYPE = U
NORAD_CAT_ID   = 22220
ELEMENT_SET_NO = 999
REV_AT_EPOCH   = 70974
BSTAR          = .376503E-4
MEAN_MOTION_DOT = .28E-6
MEAN_MOTION_DDOT = 0

CCSDS_OMM_VERS = 2.0
CREATION_DATE  = 
ORIGINATOR     = 

OBJECT_NAME    = COSMOS 2221
OBJECT_ID      = 1992-080A
CENTER_NAME    = EARTH
REF_FRAME      = TEME
TIME_SYSTEM    = UTC
MEAN_ELEMENT_THEORY = SGP/SGP4

EPOCH          = 2025-12-14T06:57:00.950976
MEAN_MOTION    = 14.95768063
ECCENTRICITY   = .00161112
INCLINATION    = 82.5046
RA_OF_ASC_NODE = 0.8421
ARG_OF_PERICENTER = 116.9107
MEAN_ANOMALY   = 243.3764

EPHEMERIS_TYPE = 0
CLASSIFICATION_TYPE = U
NORAD_CAT_ID   = 22236
ELEMENT_SET_NO = 999
REV_AT_EPOCH   = 76802
BSTAR          = .19387611E-3
MEAN_MOTION_DOT = .2192E-4
MEAN_MOTION_DDOT = 0

CCSDS_OMM_VERS = 2.0
CREATION_DATE  = 
ORIGINATOR     = 

OBJECT_NAME    = SL-16 R/B
OBJECT_ID      = 1992-093B
CENTER_NAME    = EARTH
REF_FRAME      = TEME
TIME_SYSTEM    = UTC
MEAN_ELEMENT_THEORY = SGP/SGP4

EPOCH          = 2025-12-14T07:10:21.369216
MEAN_MOTION    = 14.15430620
ECCENTRICITY   = .00021977
INCLINATION    = 71.0201
RA_OF_ASC_NODE = 183.5230
ARG_OF_PERICENTER = 66.4464
MEAN_ANOMALY   = 293.6890

EPHEMERIS_TYPE = 0
CLASSIFICATION_TYPE = U
NORAD_CAT_ID   = 22285
ELEMENT_SET_NO = 999
REV_AT_EPOCH   = 70107
BSTAR          = .21404543E-3
MEAN_MOTION_DOT = .37E-5
MEAN_MOTION_DDOT = 0

CCSDS_OMM_VERS = 2.0
CREATION_DATE  = 
ORIGINATOR     = 

OBJECT_NAME    = COSMOS 2228
OBJECT_ID      = 1992-094A
CENTER_NAME    = EARTH
REF_FRAME      = TEME
TIME_SYSTEM    = UTC
MEAN_ELEMENT_THEORY = SGP/SGP4

EPOCH          = 2025-12-14T07:04:30.742464
MEAN_MOTION    = 14.96740703
ECCENTRICITY   = .00166424
INCLINATION    = 82.5177
RA_OF_ASC_NODE = 319.0465
ARG_OF_PERICENTER = 225.5523
MEAN_ANOMALY   = 134.4339

EPHEMERIS_TYPE = 0
CLASSIFICATION_TYPE = U
NORAD_CAT_ID   = 22286
ELEMENT_SET_NO = 999
REV_AT_EPOCH   = 76328
BSTAR          = .23730796E-3
MEAN_MOTION_DOT = .2744E-4
MEAN_MOTION_DDOT = 0

