SL-14 R/B               
1 21423U 91042B   25348.33519535  .00000634  00000+0  77332-4 0  9992
2 21423  82.4926 300.2267 0017595 156.6576 203.5441 14.81740807840436
ERS-1                   
1 21574U 91050A   25348.26624664  .00000470  00000+0  16496-3 0  9991
2 21574  98.7905 359.3592 0033033  95.6813 264.8142 14.39366125803445
ARIANE 40 R/B           
1 21610U 91050F   25348.17347597  .00000473  00000+0  15428-3 0  9996
2 21610  98.2165  38.5522 0002694 356.2795   3.8375 14.42814779806665
INTERCOSMOS 25          
1 21819U 91086A   25348.28658996  .00002122  00000+0  42226-3 0  9995
2 21819  82.6072   1.6410 1486517 301.0616  45.2774 12.11733137486342
SL-8 R/B                
1 21876U 92008B   25348.19621932  .00000160  00000+0  14838-3 0  9991
2 21876  82.9266 331.3629 0035103  15.7859 354.9068 13.75959191697662
SL-8 R/B                
1 21938U 92020B   25348.16092965  .00000130  00000+0  11836-3 0  9991
2 21938  82.9304 217.2623 0028985 174.1471 299.5025 13.75527514689376
USA 81                  
1 21949U 92023A   25348.29150776  .00000256  00000+0  87393-4 0  9996
2 21949  85.0080 180.6813 0001339  66.6702 293.4632 14.32327531 82569
COSMOS 2219             
1 22219U 92076A   25348.28088749  .00000034  00000+0  42757-4 0  9993
2 22219  71.0576 196.6112 0019109 324.7903  35.1955 14.14062663706305
SL-16 R/B               
1 22220U 92076B   25348.33117823  .00000028  00000+0  37650-4 0  9996
2 22220  71.0005   8.1796 0014699 231.9257 139.1326 14.16840933709743
COSMOS 2221             
1 22236U 92080A   25348.28959434  .00002192  00000+0  19388-3 0  9995
2 22236  82.5046   0.8421 0016111 116.9107 243.3764 14.95768063768023
SL-16 R/B               
1 22285U 92093B   25348.29885844  .00000370  00000+0  21405-3 0  9996
2 22285  71.0201 183.5230 0002197  66.4464 293.6890 14.15430620701071
COSMOS 2228             
1 22286U 92094A   25348.29480026  .00002744  00000+0  23731-3 0  9992
2 22286  82.5177 319.0465 0016642 225.5523 134.4339 14.96740703763287
